NORAD_CAT_ID,OBJECT_NAME,OBJECT_TYPE,EPOCH,MEAN_MOTION,ECCENTRICITY,INCLINATION,RA_OF_ASC_NODE,ARG_OF_PERICENTER,MEAN_ANOMALY,BSTAR,MEAN_MOTION_DOT,MEAN_MOTION_DDOT,TLE_LINE0,TLE_LINE1,TLE_LINE2,SEMIMAJOR_AXIS,PERIOD,APOGEE,PERIGEE,DECAYED
54175.0,STARLINK-5256,PAYLOAD,2024-02-25 20:21:42,15.08839697,0.0001502,53.2163,98.8767,94.2072,265.9091,0.00011538,1.549e-05,0.0,0 STARLINK-5256,1 54175U 22141U   24056.84841012  .00001549  00000-0  11538-3 0  9997,2 54175  53.2163  98.8767 0001502  94.2072 265.9091 15.08839697 73717,6917.881,95.438,540.785,538.707,0.0
54175.0,STARLINK-5256,PAYLOAD,2024-02-26 09:04:46,15.08858889,0.0001475,53.2159,96.4992,82.0748,278.0411,0.00021389,3.119e-05,0.0,0 STARLINK-5256,1 54175U 22141U   24057.37831660  .00003119  00000-0  21389-3 0  9994,2 54175  53.2159  96.4992 0001475  82.0748 278.0411 15.08858889 73793,6917.823,95.436,540.708,538.667,0.0
54175.0,STARLINK-5256,PAYLOAD,2024-02-27 02:34:01,15.08834648,0.0001229,53.2159,93.2295,75.8363,284.2765,0.00079274,0.00012349,0.0,0 STARLINK-5256,1 54175U 22141U   24058.10695729  .00012349  00000-0  79274-3 0  9991,2 54175  53.2159  93.2295 0001229  75.8363 284.2765 15.08834648 73905,6917.897,95.438,540.612,538.912,0.0
54175.0,STARLINK-5256,PAYLOAD,2024-02-27 12:06:20,15.0885567,0.0001297,53.2146,91.4414,96.7709,263.3431,0.0013161,0.00020729,0.0,0 STARLINK-5256,1 54175U 22141U   24058.50440556  .00020729  00000-0  13161-2 0  9994,2 54175  53.2146  91.4414 0001297  96.7709 263.3431 15.08855670 73967,6917.832,95.437,540.595,538.8,0.0
54175.0,STARLINK-5256,PAYLOAD,2024-02-28 08:46:19,15.08858412,0.0001454,53.2152,87.577,101.3108,258.8047,-0.00019766,-3.434e-05,0.0,0 STARLINK-5256,1 54175U 22141U   24059.36550651 -.00003434  00000-0 -19766-3 0  9991,2 54175  53.2152  87.5770 0001454 101.3108 258.8047 15.08858412 74090,6917.824,95.436,540.695,538.683,0.0
54175.0,STARLINK-5256,PAYLOAD,2024-02-28 18:18:38,15.08852872,0.0001396,53.215,85.793,101.2501,258.8648,-0.00020637,-3.572e-05,0.0,0 STARLINK-5256,1 54175U 22141U   24059.76294454 -.00003572  00000-0 -20637-3 0  9993,2 54175  53.2150  85.7930 0001396 101.2501 258.8648 15.08852872 74155,6917.841,95.437,540.672,538.74,0.0
54175.0,STARLINK-5256,PAYLOAD,2024-02-29 11:47:53,15.08850542,0.0001628,53.2174,82.5231,107.011,253.106,-0.00012049,-2.206e-05,0.0,0 STARLINK-5256,1 54175U 22141U   24060.49159105 -.00002206  00000-0 -12049-3 0  9999,2 54175  53.2174  82.5231 0001628 107.0110 253.1060 15.08850542 74268,6917.848,95.437,540.839,538.587,0.0
54175.0,STARLINK-5256,PAYLOAD,2024-02-29 18:09:25,15.08849686,0.000158,53.2178,81.3331,100.3504,259.7666,-0.00017806,-3.122e-05,0.0,0 STARLINK-5256,1 54175U 22141U   24060.75655016 -.00003122  00000-0 -17806-3 0  9994,2 54175  53.2178  81.3331 0001580 100.3504 259.7666 15.08849686 74306,6917.851,95.437,540.809,538.623,0.0
54175.0,STARLINK-5256,PAYLOAD,2024-03-01 02:06:21,15.08837782,0.0001626,53.2179,79.8462,109.5955,250.5213,6.0723e-05,6.78e-06,0.0,0 STARLINK-5256,1 54175U 22141U   24061.08775449  .00000678  00000-0  60723-4 0  9992,2 54175  53.2179  79.8462 0001626 109.5955 250.5213 15.08837782 74352,6917.887,95.438,540.877,538.627,0.0
54175.0,STARLINK-5256,PAYLOAD,2024-03-01 10:03:17,15.08843002,0.00015,53.2167,78.3592,102.3032,257.8128,9.146e-05,1.168e-05,0.0,0 STARLINK-5256,1 54175U 22141U   24061.41895130  .00001168  00000-0  91460-4 0  9996,2 54175  53.2167  78.3592 0001500 102.3032 257.8128 15.08843002 74408,6917.871,95.437,540.774,538.699,0.0
54175.0,STARLINK-5256,PAYLOAD,2024-03-02 08:18:41,15.08831926,0.0001582,53.217,74.1957,98.4119,261.7053,0.00032099,4.823e-05,0.0,0 STARLINK-5256,1 54175U 22141U   24062.34631560  .00004823  00000-0  32099-3 0  9997,2 54175  53.2170  74.1957 0001582  98.4119 261.7053 15.08831926 74540,6917.905,95.438,540.864,538.676,0.0
54175.0,STARLINK-5256,PAYLOAD,2024-03-02 17:51:00,15.08841069,0.0001486,53.2164,72.4097,83.5295,276.5866,9.6321e-05,1.245e-05,0.0,0 STARLINK-5256,1 54175U 22141U   24062.74375520  .00001245  00000-0  96321-4 0  9996,2 54175  53.2164  72.4097 0001486  83.5295 276.5866 15.08841069 74604,6917.877,95.437,540.77,538.714,0.0
54175.0,STARLINK-5256,PAYLOAD,2024-03-03 09:44:51,15.08843642,0.0001374,53.2162,69.4351,87.93,272.185,6.6307e-05,7.68e-06,0.0,0 STARLINK-5256,1 54175U 22141U   24063.40615468  .00000768  00000-0  66307-4 0  9998,2 54175  53.2162  69.4351 0001374  87.9300 272.1850 15.08843642 74707,6917.869,95.437,540.685,538.784,0.0
54175.0,STARLINK-5256,PAYLOAD,2024-03-04 00:03:20,15.08839676,0.0002008,53.219,66.7583,86.5295,273.5927,5.2737e-05,5.51e-06,0.0,0 STARLINK-5256,1 54175U 22141U   24064.00231990  .00000551  00000-0  52737-4 0  9991,2 54175  53.2190  66.7583 0002008  86.5295 273.5927 15.08839676 74799,6917.881,95.438,541.135,538.357,0.0
54175.0,STARLINK-5256,PAYLOAD,2024-03-04 06:24:52,15.08847918,0.0001706,53.2178,65.5777,96.8498,263.2688,5.003e-05,5.08e-06,0.0,0 STARLINK-5256,1 54175U 22141U   24064.26727380  .00000508  00000-0  50030-4 0  9998,2 54175  53.2178  65.5777 0001706  96.8498 263.2688 15.08847918 74833,6917.856,95.437,540.901,538.541,0.0
54175.0,STARLINK-5256,PAYLOAD,2024-03-04 17:32:34,15.08847539,0.0001562,53.2167,63.4902,89.3609,270.7562,0.00018153,2.603e-05,0.0,0 STARLINK-5256,1 54175U 22141U   24064.73095183  .00002603  00000-0  18153-3 0  9996,2 54175  53.2167  63.4902 0001562  89.3609 270.7562 15.08847539 74900,6917.857,95.437,540.803,538.642,0.0
54175.0,STARLINK-5256,PAYLOAD,2024-03-05 09:26:25,15.08841463,0.0001931,53.2178,60.5127,110.4912,249.6287,0.0002721,4.045e-05,0.0,0 STARLINK-5256,1 54175U 22141U   24065.39334575  .00004045  00000-0  27210-3 0  9996,2 54175  53.2178  60.5127 0001931 110.4912 249.6287 15.08841463 75003,6917.876,95.437,541.077,538.405,0.0
54175.0,STARLINK-5256,PAYLOAD,2024-03-06 02:55:40,15.0883518,0.0001491,53.2182,57.2432,112.8929,247.2221,0.0001112,1.482e-05,0.0,0 STARLINK-5256,1 54175U 22141U   24066.12199625  .00001482  00000-0  11120-3 0  9998,2 54175  53.2182  57.2432 0001491 112.8929 247.2221 15.08835180 75118,6917.895,95.438,540.792,538.729,0.0
54175.0,STARLINK-5256,PAYLOAD,2024-03-06 09:17:12,15.08842797,0.0001726,53.2174,56.0554,97.087,263.0318,-2.4302e-05,-6.75e-06,0.0,0 STARLINK-5256,1 54175U 22141U   24066.38695489 -.00000675  00000-0 -24302-4 0  9997,2 54175  53.2174  56.0554 0001726  97.0870 263.0318 15.08842797 75150,6917.872,95.437,540.931,538.543,0.0
54175.0,STARLINK-5256,PAYLOAD,2024-03-07 04:21:51,15.08835732,0.0001709,53.2174,52.4849,100.3088,259.8097,-3.0673e-05,-7.76e-06,0.0,0 STARLINK-5256,1 54175U 22141U   24067.18184086 -.00000776  00000-0 -30673-4 0  9992,2 54175  53.2174  52.4849 0001709 100.3088 259.8097 15.08835732 75278,6917.893,95.438,540.941,538.576,0.0
54175.0,STARLINK-5256,PAYLOAD,2024-03-07 05:57:13,15.08841516,0.0001602,53.2174,52.1891,100.1491,259.9682,-2.3982e-05,-6.7e-06,0.0,0 STARLINK-5256,1 54175U 22141U   24067.24807668 -.00000670  00000-0 -23982-4 0  9995,2 54175  53.2174  52.1891 0001602 100.1491 259.9682 15.08841516 75289,6917.876,95.437,540.849,538.633,0.0
54175.0,STARLINK-5256,PAYLOAD,2024-03-08 05:48:01,15.0883704,0.0001614,53.2184,47.7311,99.7018,260.4157,0.00012999,1.781e-05,0.0,0 STARLINK-5256,1 54175U 22141U   24068.24168251  .00001781  00000-0  12999-3 0  9991,2 54175  53.2184  47.7311 0001614  99.7018 260.4157 15.08837040 75436,6917.889,95.438,540.871,538.638,0.0
54175.0,STARLINK-5256,PAYLOAD,2024-03-09 07:14:11,15.08842745,0.0001679,53.2178,42.9733,102.4712,257.6468,0.00019707,2.85e-05,0.0,0 STARLINK-5256,1 54175U 22141U   24069.30152150  .00002850  00000-0  19707-3 0  9992,2 54175  53.2178  42.9733 0001679 102.4712 257.6468 15.08842745 75596,6917.872,95.437,540.899,538.575,0.0
54175.0,STARLINK-5256,PAYLOAD,2024-03-10 05:29:35,15.08834234,0.0001783,53.2179,38.8103,94.6662,265.4533,0.00063349,9.807e-05,0.0,0 STARLINK-5256,1 54175U 22141U   24070.22888516  .00009807  00000-0  63349-3 0  9997,2 54175  53.2179  38.8103 0001783  94.6662 265.4533 15.08834234 75734,6917.898,95.438,540.996,538.53,0.0
54175.0,STARLINK-5256,PAYLOAD,2024-03-10 15:01:54,15.08842298,0.0001734,53.2189,37.0254,78.4382,281.6804,6.9818e-05,8.23e-06,0.0,0 STARLINK-5256,1 54175U 22141U   24070.62632045  .00000823  00000-0  69818-4 0  9992,2 54175  53.2189  37.0254 0001734  78.4382 281.6804 15.08842298 75794,6917.873,95.437,540.938,538.539,0.0
54175.0,STARLINK-5256,PAYLOAD,2024-03-11 03:44:59,15.0883391,0.0001345,53.2179,34.6439,85.1999,274.9147,-9.3719e-05,-1.779e-05,0.0,0 STARLINK-5256,1 54175U 22141U   24071.15624457 -.00001779  00000-0 -93719-4 0  9999,2 54175  53.2179  34.6439 0001345  85.1999 274.9147 15.08833910 75873,6917.899,95.438,540.694,538.834,0.0
54175.0,STARLINK-5256,PAYLOAD,2024-03-11 06:55:45,15.08840139,0.0001528,53.2173,34.0464,91.466,268.6507,2.4437e-06,-2.49e-06,0.0,0 STARLINK-5256,1 54175U 22141U   24071.28872142 -.00000249  00000-0  24437-5 0  9991,2 54175  53.2173  34.0464 0001528  91.4660 268.6507 15.08840139 75890,6917.88,95.438,540.802,538.688,0.0
54175.0,STARLINK-5256,PAYLOAD,2024-03-11 21:14:13,15.08842526,0.0001606,53.2183,31.3715,89.3883,270.7293,-2.0835e-05,-6.2e-06,0.0,0 STARLINK-5256,1 54175U 22141U   24071.88488190 -.00000620  00000-0 -20835-4 0  9994,2 54175  53.2183  31.3715 0001606  89.3883 270.7293 15.08842526 75988,6917.873,95.437,540.849,538.627,0.0
54175.0,STARLINK-5256,PAYLOAD,2024-03-12 14:43:28,15.08841562,0.0001629,53.2185,28.1005,93.9524,266.1654,4.8882e-05,4.9e-06,0.0,0 STARLINK-5256,1 54175U 22141U   24072.61352236  .00000490  00000-0  48882-4 0  9992,2 54175  53.2185  28.1005 0001629  93.9524 266.1654 15.08841562 76096,6917.876,95.437,540.868,538.614,0.0
54175.0,STARLINK-5256,PAYLOAD,2024-03-13 03:26:33,15.08842355,0.0001388,53.2175,25.7214,97.7073,262.4077,0.00021189,3.086e-05,0.0,0 STARLINK-5256,1 54175U 22141U   24073.14344220  .00003086  00000-0  21189-3 0  9999,2 54175  53.2175  25.7214 0001388  97.7073 262.4077 15.08842355 76171,6917.873,95.437,540.698,538.778,0.0
